SatCatId,ObjectName,LaunchYear,OrbitalPeriod,LaunchMass,StatusCode,Inclination,Status,UcsData,OrbitClassEstimated,LaunchSiteCountry,Owner,UseType,Purpose,LaunchVehicleClass,TLE1,TLE2,MeanMotion,Eccentricity,OrbitClass
45567,STARLINK-1361,2020,95.59,227.0,+,53.05,Active,1,LEO,USA,USA,Commercial,Communications,Falcon,1 45567U 20025AN  25170.42752638  .00000364  00000+0  43361-4 0  9991,2 45567  53.0538 188.4513 0001233  94.8977 265.2152 15.06392961285691,15.06392961,0.0001233,LEO
45568,STARLINK-1363,2020,95.59,227.0,+,53.05,Active,1,LEO,USA,USA,Commercial,Communications,Falcon,1 45568U 20025AP  25170.30959704  .00000610  00000+0  59825-4 0  9998,2 45568  53.0535 189.2213 0001204  84.0138 276.0988 15.06397793285665,15.06397793,0.0001204,LEO
45569,STARLINK-1366,2020,95.59,227.0,+,53.05,Active,1,LEO,USA,USA,Commercial,Communications,Falcon,1 45569U 20025AQ  25170.36485040  .00001211  00000+0  10018-3 0  9990,2 45569  53.0540 188.7253 0000972  75.5761 284.5336 15.06403309285075,15.06403309,9.72e-05,LEO
45570,STARLINK-1376,2020,95.59,227.0,+,53.05,Active,1,LEO,USA,USA,Commercial,Communications,Falcon,1 45570U 20025AR  25170.35748869  .00001246  00000+0  10254-3 0  9992,2 45570  53.0533 188.7599 0001266  76.8700 283.2430 15.06403620285679,15.0640362,0.0001266,LEO
45572,STARLINK-1320,2020,94.33,227.0,P,53.07,Active,1,LEO,USA,USA,Commercial,Communications,Falcon,1 45572U 20025AT  25170.36344613  .00041470  00000+0  15697-2 0  9992,2 45572  53.0657 157.1546 0006967 304.3344  55.6994 15.26532790286137,15.2653279,0.0006967,LEO
45573,STARLINK-1321,2020,95.59,227.0,+,53.05,Active,1,LEO,USA,USA,Commercial,Communications,Falcon,1 45573U 20025AU  25170.34366780  .00000032  00000+0  21056-4 0  9997,2 45573  53.0533 178.8219 0000933  73.3757 286.7334 15.06398230285216,15.0639823,9.33e-05,LEO
45576,STARLINK-1328,2020,95.59,227.0,+,53.05,Active,1,LEO,USA,USA,Commercial,Communications,Falcon,1 45576U 20025AX  25170.39526445  .00000224  00000+0  33932-4 0  9990,2 45576  53.0533 178.5912 0001203  87.6805 272.4322 15.06396798285833,15.06396798,0.0001203,LEO
45578,STARLINK-1331,2020,95.59,227.0,+,53.05,Active,1,LEO,USA,USA,Commercial,Communications,Falcon,1 45578U 20025AZ  25170.32155132  .00000291  00000+0  38406-4 0  9991,2 45578  53.0531 178.9219 0001309  89.5731 270.5408 15.06394752285824,15.06394752,0.0001309,LEO
45580,STARLINK-1333,2020,95.59,227.0,+,53.05,Active,1,LEO,USA,USA,Commercial,Communications,Falcon,1 45580U 20025BB  25170.32799754  .00000677  00000+0  64332-4 0  9993,2 45580  53.0534 188.8974 0001156  84.4607 275.6514 15.06397065285671,15.06397065,0.0001156,LEO
45581,STARLINK-1335,2020,95.59,227.0,+,53.05,Active,1,LEO,USA,USA,Commercial,Communications,Falcon,1 45581U 20025BC  25170.53163964 -.00000181  00000+0  67328-5 0  9995,2 45581  53.0530 177.9771 0001632  95.8395 264.2780 15.06401453285846,15.06401453,0.0001632,LEO
45582,STARLINK-1337,2020,95.59,227.0,+,53.05,Active,1,LEO,USA,USA,Commercial,Communications,Falcon,1 45582U 20025BD  25170.42106580  .00000361  00000+0  43108-4 0  9993,2 45582  53.0536 178.4760 0001252  89.9104 270.2028 15.06401985285827,15.06401985,0.0001252,LEO
45586,STARLINK-1347,2020,95.59,227.0,+,53.05,Active,1,LEO,USA,USA,Commercial,Communications,Falcon,1 45586U 20025BH  25170.34735943 -.00000911  00000+0 -42270-4 0  9991,2 45586  53.0531 178.8046 0001114  84.6850 275.4266 15.06391971285200,15.06391971,0.0001114,LEO
45587,STARLINK-1349,2020,92.01,227.0,P,53.05,Active,1,LEO,USA,USA,Commercial,Communications,Falcon,1 45587U 20025BJ  25170.91668981  .00176485  00000+0  17207-2 0  9990,2 45587  53.0546 169.2239 0001751  83.3404 267.6607 15.65159043285404,15.65159043,0.0001751,LEO
45588,STARLINK-1360,2020,92.4,227.0,P,53.05,Active,1,LEO,USA,USA,Commercial,Communications,Falcon,1 45588U 20025BK  25170.17694875  .00031810  00000+0  41530-3 0  9999,2 45588  53.0506 139.4557 0004557  48.7175 311.4228 15.58404221286355,15.58404221,0.0004557,LEO
45589,STARLINK-1364,2020,95.59,227.0,+,53.05,Active,1,LEO,USA,USA,Commercial,Communications,Falcon,1 45589U 20025BL  25170.29205827  .00000982  00000+0  84826-4 0  9990,2 45589  53.0534 179.0537 0001193  83.9955 276.1170 15.06398498285808,15.06398498,0.0001193,LEO
45590,STARLINK-1365,2020,95.59,227.0,+,53.05,Active,1,LEO,USA,USA,Commercial,Communications,Falcon,1 45590U 20025BM  25170.30772972  .00000616  00000+0  60215-4 0  9994,2 45590  53.0534 208.9882 0001059  79.1832 280.9276 15.06406107284791,15.06406107,0.0001059,LEO
45602,XINGYUN-2 01,2020,95.39,93.0,+,97.46,Active,1,LEO,PRC,China,Government,Communications,Kuaizhou,1 45602U 20028A   25170.82615828  .00001742  00000+0  11242-3 0  9990,2 45602  97.4651 166.5370 0010124  20.8994 339.2647 15.09519848280137,15.09519848,0.0010124,LEO
45603,XINGYUN-2 02,2020,95.4,93.0,+,97.51,Active,1,LEO,PRC,China,Government,Communications,Kuaizhou,1 45603U 20028B   25170.82534470  .00002076  00000+0  13355-3 0  9992,2 45603  97.5079 178.7243 0013188  79.0983 281.1729 15.09408291280139,15.09408291,0.0013188,LEO
45608,COSMOS 2546,2020,717.85,-1.0,+,63.11,Active,1,MEO,Russia,Russia/USSR,Military,Earth Observation,Soyuz,1 45608U 20031A   25170.11686189  .00000340  00000+0  00000+0 0  9999,2 45608  63.1141 110.6946 6890486 265.0562  19.8753  2.00598105 37187,2.00598105,0.6890486,MEO
45611,XJS G,2020,90.83,-1.0,+,35.02,Active,1,LEO,PRC,China,Government,Technology Development,Long March,1 45611U 20032A   25170.32756905  .00162975  00000+0  64275-3 0  9992,2 45611  35.0210 167.4196 0005654 235.5053 124.5147 15.85351187284469,15.85351187,0.0005654,LEO
45625,GAOFEN-9 02,2020,94.53,1000.0,+,97.53,Active,1,LEO,PRC,China,Government,Earth Observation,Long March,1 45625U 20034B   25170.84362545  .00004927  00000+0  20998-3 0  9995,2 45625  97.5314 320.4972 0012032 225.3272 134.6984 15.23365906280972,15.23365906,0.0012032,LEO
45660,STARLINK-1443,2020,95.59,227.0,+,53.05,Active,1,LEO,USA,USA,Commercial,Communications,Falcon,1 45660U 20035D   25170.35933294 -.00000490  00000+0 -14005-4 0  9992,2 45660  53.0541 168.7535 0001180  75.0623 285.0497 15.06394656279041,15.06394656,0.000118,LEO
45663,STARLINK-1446,2020,94.56,227.0,P,53.03,Active,1,LEO,USA,USA,Commercial,Communications,Falcon,1 45663U 20035G   25170.64975774  .00023480  00000+0  99825-3 0  9990,2 45663  53.0313 150.5274 0001005  93.4920 266.6191 15.22942539278918,15.22942539,0.0001005,LEO
45665,STARLINK-1448,2020,95.59,227.0,+,53.05,Active,1,LEO,USA,USA,Commercial,Communications,Falcon,1 45665U 20035J   25170.29666481  .00000256  00000+0  36064-4 0  9998,2 45665  53.0534 169.0339 0001088  84.1105 276.0008 15.06403032279022,15.06403032,0.0001088,LEO
45668,STARLINK-1451,2020,95.59,227.0,+,53.05,Active,1,LEO,USA,USA,Commercial,Communications,Falcon,1 45668U 20035M   25170.36674224  .00000028  00000+0  20761-4 0  9997,2 45668  53.0532 169.0374 0001229  85.2484 274.8646 15.06397168279049,15.06397168,0.0001229,LEO
45669,STARLINK-1452,2020,94.98,227.0,P,53.05,Active,1,LEO,USA,USA,Commercial,Communications,Falcon,1 45669U 20035N   25170.38449015  .00023136  00000+0  11962-2 0  9994,2 45669  53.0495 163.0370 0006029 334.1984  25.8708 15.16168716279120,15.16168716,0.0006029,LEO
45670,STARLINK-1453,2020,95.59,227.0,+,53.06,Active,1,LEO,USA,USA,Commercial,Communications,Falcon,1 45670U 20035P   25170.31049279  .00000465  00000+0  50094-4 0  9998,2 45670  53.0551 138.9708 0001422  91.2459 268.8693 15.06396102279348,15.06396102,0.0001422,LEO
45671,STARLINK-1454,2020,95.59,227.0,+,53.05,Active,1,LEO,USA,USA,Commercial,Communications,Falcon,1 45671U 20035Q   25170.38881164  .00000680  00000+0  64530-4 0  9992,2 45671  53.0538 168.6179 0000771  84.9541 275.1536 15.06400318279031,15.06400318,7.71e-05,LEO
45673,STARLINK-1456,2020,95.59,227.0,+,53.05,Active,1,LEO,USA,USA,Commercial,Communications,Falcon,1 45673U 20035S   25170.40356241  .00001445  00000+0  11586-3 0  9992,2 45673  53.0533 168.5531 0001293  90.3813 269.7324 15.06400301279050,15.06400301,0.0001293,LEO
45674,STARLINK-1457,2020,95.59,227.0,+,53.05,Active,1,LEO,USA,USA,Commercial,Communications,Falcon,1 45674U 20035T   25170.41093110  .00000580  00000+0  57841-4 0  9991,2 45674  53.0533 168.5242 0001100  88.8048 271.3067 15.06398575279028,15.06398575,0.00011,LEO
45675,STARLINK-1458,2020,95.59,227.0,+,53.05,Active,1,LEO,USA,USA,Commercial,Communications,Falcon,1 45675U 20035U   25170.39986467  .00001711  00000+0  13365-3 0  9994,2 45675  53.0530 168.5708 0001167  81.1604 278.9517 15.06414320279019,15.0641432,0.0001167,LEO
45676,STARLINK-1460,2020,95.59,227.0,+,53.05,Active,1,LEO,USA,USA,Commercial,Communications,Falcon,1 45676U 20035V   25170.37038463  .00000751  00000+0  69298-4 0  9997,2 45676  53.0537 168.7028 0001281  86.9253 273.1882 15.06404002279001,15.06404002,0.0001281,LEO
45677,STARLINK-1392,2020,95.59,227.0,+,53.05,Active,1,LEO,USA,USA,Commercial,Communications,Falcon,1 45677U 20035W   25170.38144139  .00000934  00000+0  81576-4 0  9993,2 45677  53.0532 168.6507 0001023  83.4250 276.6855 15.06398554279047,15.06398554,0.0001023,LEO
45679,STARLINK-1394,2020,95.59,227.0,+,53.05,Active,1,LEO,USA,USA,Commercial,Communications,Falcon,1 45679U 20035Y   25170.37867436  .00000570  00000+0  57174-4 0  9999,2 45679  53.0534 158.6664 0001349  85.5322 274.5821 15.06404878279180,15.06404878,0.0001349,LEO
45685,STARLINK-1402,2020,95.59,227.0,+,53.05,Active,1,LEO,USA,USA,Commercial,Communications,Falcon,1 45685U 20035AE  25170.34310652  .00000512  00000+0  53293-4 0  9990,2 45685  53.0544 153.2444 0001218  83.6407 276.4720 15.06398021279263,15.06398021,0.0001218,LEO
45686,STARLINK-1404,2020,95.59,227.0,+,53.05,Active,1,LEO,USA,USA,Commercial,Communications,Falcon,1 45686U 20035AF  25170.33813765  .00000705  00000+0  66225-4 0  9996,2 45686  53.0537 158.8497 0001341  83.0195 277.0947 15.06403206279181,15.06403206,0.0001341,LEO
